CZ-2D R/B               
1 28738U 05024B   26108.61977536  .00041423  00000+0  44296-3 0  9991
2 28738  97.3542 125.3372 0003666 191.2621 168.8556 15.63777768146014
ALOS (DAICHI)           
1 28931U 06002A   26109.14307225  .00000759  00000+0  13513-3 0  9999
2 28931  98.1281  64.9168 0001720 110.2389 249.9002 14.69925086 79420
H-2A R/B                
1 28932U 06002B   26108.84866217  .00007408  00000+0  36277-3 0  9997
2 28932  98.2488 259.3725 0052606 104.9925 255.7138 15.17278887100520
RESURS-DK 1             
1 29228U 06021A   26109.06611905  .00001454  00000+0  88355-4 0  9994
2 29228  69.9296 132.5638 0002676 355.0550   5.0589 15.12959404 93636
CZ-4B R/B               
1 29507U 06046C   26109.10666208  .00003465  00000+0  17476-3 0  9991
2 29507  97.5511 153.8999 0034402 126.0600 234.3828 15.17297102 66170
CZ-2C R/B               
1 31114U 07010B   26109.02342815  .00000068  00000+0  49874-4 0  9990
2 31114  98.4026 220.2894 0059175 175.8274 184.3409 14.20260478985442
COSMO-SKYMED 1          
1 31598U 07023A   26109.17893484  .00001480  00000+0  13453-3 0  9991
2 31598  97.8873 300.5446 0001182  89.1441 270.9915 14.96810476 20967
COSMOS 2428             
1 31792U 07029A   26109.10023170 -.00000169  00000+0 -64684-4 0  9991
2 31792  70.9395 118.5249 0009374 233.4497 126.5762 14.12947307969801
SL-16 R/B               
1 31793U 07029B   26109.20652975  .00000056  00000+0  54054-4 0  9997
2 31793  70.9733  87.2129 0002640 269.9042 101.0235 14.14841757971109
KORONAS-FOTON           
1 33504U 09003A   26109.07853425  .00011441  00000+0  24627-3 0  9993
2 33504  82.4308 233.8496 0010397  15.9961 344.1613 15.44413526951976
CZ-2C R/B               
1 37731U 11030B   26109.13242075  .00000637  00000+0  86638-4 0  9998
2 37731  97.8610  65.6088 0051444 217.4777 153.4696 14.81343937796087
H-2A R/B                
1 38341U 12025E   26109.14627583  .00001612  00000+0  14935-3 0  9997
2 38341  98.4796  79.4581 0044138 178.3678 181.7693 14.95417429754263
SHIJIAN-16 (SJ-16)      
1 39358U 13057A   26109.18558265 -.00000011  00000+0  18525-5 0  9990
2 39358  74.9696 108.4170 0015886   8.3869 351.7581 14.92460831677541
SL-4 R/B                
1 39679U 14021B   26109.12408147  .00009762  00000+0  21228-3 0  9998
2 39679  51.6046 139.8068 0093009 250.8460 108.2439 15.40530065662504
ALOS-2                  
1 39766U 14029A   26108.55461549  .00000069  00000+0  16160-4 0  9995
2 39766  97.9203 206.5725 0001772  90.6594 269.4820 14.79454374642764
YAOGAN-29               
1 41038U 15069A   26109.20969476 -.00000260  00000+0 -25285-4 0  9993
2 41038  98.0079 137.7369 0001259 151.8695 208.2586 14.83034185561885
ASTRO-H (HITOMI)        
1 41337U 16012A   26109.01937080  .00002014  00000+0  11442-3 0  9995
2 41337  30.9984  96.2348 0009495  16.7394 343.3556 15.10241236558330
HXMT (HUIYAN)           
1 42758U 17034A   26109.18588773  .00003248  00000+0  16694-3 0  9991
2 42758  43.0129 151.4380 0030646 132.6135 227.7305 15.17950151488695
SAOCOM 1A               
1 43641U 18076A   26109.19932808 -.00000038  00000+0  17949-5 0  9994
2 43641  97.8891 296.8000 0001451  90.2786 269.8594 14.82147046407360
H-2A R/B                
1 43682U 18084L   26109.08947503  .00016534  00000+0  37401-3 0  9994
2 43682  98.8661 335.1581 0023122 241.0733 118.8191 15.42984199412007
SAOCOM 1B               
1 46265U 20059A   26109.16303946  .00000268  00000+0  40171-4 0  9991
2 46265  97.8885 295.8588 0001503  83.2235 276.9149 14.82162129304749
CSS (TIANHE)            
1 48274U 21035A   26109.06855179  .00023626  00000+0  26023-3 0  9999
2 48274  41.4678 322.1057 0006348 235.7660 124.2578 15.62543306283925
COSMOS 2550             
1 48865U 21056A   26109.20685223 -.00000198  00000+0 -20213-6 0  9994
2 48865  67.1423 278.3188 0008316 269.4083  90.6119 15.33833399269676
CZ-2C R/B               
1 52794U 22058K   26108.97651726  .00038568  00000+0  50509-3 0  9995
2 52794  50.1859 110.5685 0039852  13.2286 346.9721 15.57205612216401
CZ-2C R/B               
1 54039U 22132E   26108.74977622  .00046929  00000+0  46517-3 0  9997
2 54039  97.2942 113.4000 0013198 304.3915  55.6096 15.65573480196632
GSLV R/B                
1 54149U 22138AN  26109.09806853  .00001417  00000+0  12009-3 0  9993
2 54149  87.3828 152.8259 0021689  11.9275 348.2465 14.97001524189973
XRISM                   
1 57800U 23137A   26109.11503785  .00004130  00000+0  22946-3 0  9997
2 57800  31.0033  22.0935 0007483  86.5497 273.5998 15.11940249143911
ACS3                    
1 59588U 24077B   26109.07970916  .00025202  00000+0  19457-1 0  9999
2 59588  97.1863  41.1236 0069452 354.8334   5.2106 13.91597884 99810
HTV-X1                  
1 66174U 25241A   26109.08011388  .00005608  00000+0  18638-3 0  9992
2 66174  51.6367 238.2858 0007693 329.3091  30.7439 15.32689515 27136
SZ-21 MODULE            
1 66515U 25246C   26108.88912087  .00037547  00000+0  28361-3 0  9990
2 66515  41.4737 315.3025 0004482 291.2809  68.7555 15.71679452 24390

ISS (ZARYA)             
1 25544U 98067A   26109.16735170  .00008294  00000+0  15944-3 0  9996
2 25544  51.6330 232.2024 0006622 324.6287  35.4262 15.48825421562604
POISK                   
1 36086U 09060A   26109.16735170  .00008294  00000+0  15944-3 0  9994
2 36086  51.6330 232.2024 0006622 324.6287  35.4262 15.48825421562517
CSS (TIANHE)            
1 48274U 21035A   26109.06855179  .00023626  00000+0  26023-3 0  9999
2 48274  41.4678 322.1057 0006348 235.7660 124.2578 15.62543306283925
ISS (NAUKA)             
1 49044U 21066A   26109.16735170  .00008294  00000+0  15944-3 0  9992
2 49044  51.6330 232.2024 0006622 324.6287  35.4262 15.48825421562559
FREGAT DEB              
1 49271U 11037PF  26108.23687171  .00000980  00000+0  16109-2 0  9992
2 49271  51.6415 181.9872 0945415 150.0785 215.7731 12.40993473217601
CSS (WENTIAN)           
1 53239U 22085A   26108.94072254  .00023445  00000+0  25834-3 0  9991
2 53239  41.4678 322.8859 0006309 235.0517 124.9731 15.62536941283138
CSS (MENGTIAN)          
1 54216U 22143A   26109.06855179  .00023626  00000+0  26023-3 0  9993
2 54216  41.4678 322.1057 0006348 235.7660 124.2578 15.62543306283928
TIANZHOU-9              
1 64786U 25149A   26109.06855179  .00023626  00000+0  26023-3 0  9995
2 64786  41.4678 322.1057 0006348 235.7660 124.2578 15.62543306283932
PROGRESS-MS 32          
1 65586U 25204A   26108.78021582  .00008099  00000+0  15594-3 0  9995
2 65586  51.6329 234.1171 0006602 323.1571  36.8962 15.48819285554507
BOTAN                   
1 65943U 98067XQ  26108.50080101  .04905991  12189-4  10064-2 0  9994
2 65943  51.6087 206.4857 0010568 326.5110  33.5243 16.30209286 29857
HRC MONOBLOCK CAMERA    
1 66052U 98067XR  26109.00691350  .00057315  00000+0  53708-3 0  9997
2 66052  51.6259 221.3675 0004235 303.1426  56.9163 15.66634896 28709
HTV-X1                  
1 66174U 25241A   26109.08011388  .00005608  00000+0  18638-3 0  9992
2 66174  51.6367 238.2858 0007693 329.3091  30.7439 15.32689515 27136
SZ-21 MODULE            
1 66515U 25246C   26108.88912087  .00037547  00000+0  28361-3 0  9990
2 66515  41.4737 315.3025 0004482 291.2809  68.7555 15.71679452 24390
SHENZHOU-22             
1 66645U 25272A   26109.06855179  .00023626  00000+0  26023-3 0  9998
2 66645  41.4678 322.1057 0006348 235.7660 124.2578 15.62543306283949
SOYUZ-MS 28             
1 66664U 25275A   26109.16735170  .00008294  00000+0  15944-3 0  9995
2 66664  51.6330 232.2024 0006622 324.6287  35.4262 15.48825421562792
DUPLEX                  
1 66906U 98067XS  26108.55856471  .00029568  00000+0  38131-3 0  9993
2 66906  51.6290 229.6363 0004169 309.6952  50.3672 15.58738285 21342
ISS OBJECT XT           
1 66907U 98067XT  26108.55236295  .00495385  00000+0  16654-2 0  9999
2 66907  51.6202 219.7528 0011409 328.8979  31.1349 15.88181300 21471
ISS OBJECT XU           
1 66908U 98067XU  26108.54332476  .00471816  93643-4  16457-2 0  9991
2 66908  51.6202 219.6891 0011222 327.7702  32.2616 15.88666942 21478
SILVERSAT               
1 66909U 98067XV  26108.99704291  .01409087  12535-2  17815-2 0  9999
2 66909  51.6119 214.3984 0014682 336.6352  23.3992 16.06876520 21580
ISS OBJECT XW           
1 66910U 98067XW  26108.59179369  .00384682  00000+0  15688-2 0  9998
2 66910  51.6188 220.0128 0010259 322.9849  37.0445 15.84493607 21476
ISS OBJECT XY           
1 66912U 98067XY  26108.54201443  .00156005  00000+0  11287-2 0  9991
2 66912  51.6238 224.2453 0007087 319.3520  40.6948 15.72429390 21408
KNACKSAT-2              
1 67683U 98067XZ  26109.06014733  .00034712  00000+0  50937-3 0  9995
2 67683  51.6309 230.7388 0011823 338.3227  21.7262 15.55107935 11069
CORAL                   
1 67684U 98067YA  26109.04786094  .00085111  00000+0  96826-3 0  9996
2 67684  51.6284 229.1531 0015552 330.9310  29.0816 15.61415252 11087
GXIBA-1                 
1 67685U 98067YB  26108.65570008  .00048570  00000+0  68906-3 0  9995
2 67685  51.6300 232.5384 0013769 333.8098  26.2195 15.55840305 11009
UITMSAT-2               
1 67686U 98067YC  26108.62475503  .00064016  00000+0  85865-3 0  9993
2 67686  51.6301 232.3327 0010594 313.2925  46.7183 15.57278933 11008
HMU-SAT2                
1 67687U 98067YD  26109.04995329  .00038650  00000+0  55750-3 0  9999
2 67687  51.6312 230.6749 0009960 316.3767  43.6436 15.55546177 10982
LEOPARD                 
1 67688U 98067YE  26108.63886078  .00048297  00000+0  66704-3 0  9993
2 67688  51.6304 232.4286 0010218 313.8961  46.1186 15.56617401 10920
CREW DRAGON 12          
1 67796U 26031A   26109.16735170  .00008294  00000+0  15944-3 0  9993
2 67796  51.6330 232.2024 0006622 324.6287  35.4262 15.48825421562676
PROGRESS-MS 33          
1 68319U 26058A   26109.16735170  .00008294  00000+0  15944-3 0  9994
2 68319  51.6330 232.2024 0006622 324.6287  35.4262 15.48825421  4185
